{
  "type": "FeatureCollection",
  "features": [
    {
      "type": "Feature",
      "geometry": {
        "type": "LineString",
        "coordinates": [
          [
            770206.3300000001,
            6270782.279999999
          ],
          [
            770160.43,
            6270810.18
          ]
        ]
      },
      "properties": {
        "row_id": -2281028,
        "max_length_m": 53.71424392116978
      }
    },
    {
      "type": "Feature",
      "geometry": {
        "type": "LineString",
        "coordinates": [
          [
            770159.53,
            6270808.68
          ],
          [
            770225.8300000001,
            6270767.88
          ]
        ]
      },
      "properties": {
        "row_id": -2281027,
        "max_length_m": 77.84812136455815
      }
    },
    {
      "type": "Feature",
      "geometry": {
        "type": "LineString",
        "coordinates": [
          [
            770157.7300000001,
            6270805.68
          ],
          [
            770224.3300000001,
            6270765.48
          ]
        ]
      },
      "properties": {
        "row_id": -2281026,
        "max_length_m": 77.79203043973718
      }
    },
    {
      "type": "Feature",
      "geometry": {
        "type": "LineString",
        "coordinates": [
          [
            770156.8300000001,
            6270803.58
          ],
          [
            770221.3300000001,
            6270763.98
          ]
        ]
      },
      "properties": {
        "row_id": -2281025,
        "max_length_m": 75.68626031170054
      }
    },
    {
      "type": "Feature",
      "geometry": {
        "type": "LineString",
        "coordinates": [
          [
            770155.03,
            6270801.779999999
          ],
          [
            770221.6300000001,
            6270760.98
          ]
        ]
      },
      "properties": {
        "row_id": -2281024,
        "max_length_m": 78.10377711686682
      }
    },
    {
      "type": "Feature",
      "geometry": {
        "type": "LineString",
        "coordinates": [
          [
            770154.43,
            6270800.279999999
          ],
          [
            770220.1300000001,
            6270759.18
          ]
        ]
      },
      "properties": {
        "row_id": -2281023,
        "max_length_m": 77.49645153152856
      }
    },
    {
      "type": "Feature",
      "geometry": {
        "type": "LineString",
        "coordinates": [
          [
            770152.3300000001,
            6270797.88
          ],
          [
            770219.2300000001,
            6270757.38
          ]
        ]
      },
      "properties": {
        "row_id": -2281022,
        "max_length_m": 78.20396409391992
      }
    },
    {
      "type": "Feature",
      "geometry": {
        "type": "LineString",
        "coordinates": [
          [
            770152.3300000001,
            6270794.88
          ],
          [
            770217.7300000001,
            6270754.98
          ]
        ]
      },
      "properties": {
        "row_id": -2281021,
        "max_length_m": 76.61050841730822
      }
    },
    {
      "type": "Feature",
      "geometry": {
        "type": "LineString",
        "coordinates": [
          [
            770149.6300000001,
            6270793.38
          ],
          [
            770216.53,
            6270752.58
          ]
        ]
      },
      "properties": {
        "row_id": -2281020,
        "max_length_m": 78.35974731947736
      }
    },
    {
      "type": "Feature",
      "geometry": {
        "type": "LineString",
        "coordinates": [
          [
            770149.03,
            6270791.279999999
          ],
          [
            770215.03,
            6270750.779999999
          ]
        ]
      },
      "properties": {
        "row_id": -2281019,
        "max_length_m": 77.43545699484184
      }
    },
    {
      "type": "Feature",
      "geometry": {
        "type": "LineString",
        "coordinates": [
          [
            770147.2300000001,
            6270788.58
          ],
          [
            770213.53,
            6270748.68
          ]
        ]
      },
      "properties": {
        "row_id": -2281018,
        "max_length_m": 77.38023003339075
      }
    },
    {
      "type": "Feature",
      "geometry": {
        "type": "LineString",
        "coordinates": [
          [
            770145.7300000001,
            6270786.779999999
          ],
          [
            770212.03,
            6270746.58
          ]
        ]
      },
      "properties": {
        "row_id": -2281017,
        "max_length_m": 77.53534677765255
      }
    },
    {
      "type": "Feature",
      "geometry": {
        "type": "LineString",
        "coordinates": [
          [
            770144.53,
            6270784.98
          ],
          [
            770211.1300000001,
            6270744.18
          ]
        ]
      },
      "properties": {
        "row_id": -2281016,
        "max_length_m": 78.10377711783984
      }
    },
    {
      "type": "Feature",
      "geometry": {
        "type": "LineString",
        "coordinates": [
          [
            770143.3300000001,
            6270782.88
          ],
          [
            770209.9300000002,
            6270742.08
          ]
        ]
      },
      "properties": {
        "row_id": -2281015,
        "max_length_m": 78.10377711735333
      }
    },
    {
      "type": "Feature",
      "geometry": {
        "type": "LineString",
        "coordinates": [
          [
            770141.8300000001,
            6270780.48
          ],
          [
            770208.1300000001,
            6270739.68
          ]
        ]
      },
      "properties": {
        "row_id": -2281014,
        "max_length_m": 77.84812136504625
      }
    },
    {
      "type": "Feature",
      "geometry": {
        "type": "LineString",
        "coordinates": [
          [
            770140.6300000001,
            6270778.68
          ],
          [
            770207.2300000001,
            6270738.18
          ]
        ]
      },
      "properties": {
        "row_id": -2281013,
        "max_length_m": 77.94748231980876
      }
    },
    {
      "type": "Feature",
      "geometry": {
        "type": "LineString",
        "coordinates": [
          [
            770139.43,
            6270776.88
          ],
          [
            770205.4300000002,
            6270735.48
          ]
        ]
      },
      "properties": {
        "row_id": -2281012,
        "max_length_m": 77.90994801672697
      }
    },
    {
      "type": "Feature",
      "geometry": {
        "type": "LineString",
        "coordinates": [
          [
            770138.2300000001,
            6270773.88
          ],
          [
            770202.1300000001,
            6270734.879999999
          ]
        ]
      },
      "properties": {
        "row_id": -2281011,
        "max_length_m": 74.86127169689023
      }
    },
    {
      "type": "Feature",
      "geometry": {
        "type": "LineString",
        "coordinates": [
          [
            770136.7300000001,
            6270772.08
          ],
          [
            770203.03,
            6270731.58
          ]
        ]
      },
      "properties": {
        "row_id": -2281010,
        "max_length_m": 77.69131225555878
      }
    },
    {
      "type": "Feature",
      "geometry": {
        "type": "LineString",
        "coordinates": [
          [
            770135.23,
            6270769.98
          ],
          [
            770201.53,
            6270729.779999999
          ]
        ]
      },
      "properties": {
        "row_id": -2281009,
        "max_length_m": 77.53534677871784
      }
    },
    {
      "type": "Feature",
      "geometry": {
        "type": "LineString",
        "coordinates": [
          [
            770134.03,
            6270767.58
          ],
          [
            770199.1300000001,
            6270727.98
          ]
        ]
      },
      "properties": {
        "row_id": -2281008,
        "max_length_m": 76.19822832574667
      }
    },
    {
      "type": "Feature",
      "geometry": {
        "type": "LineString",
        "coordinates": [
          [
            770134.3300000001,
            6270765.18
          ],
          [
            770198.53,
            6270725.58
          ]
        ]
      },
      "properties": {
        "row_id": -2281007,
        "max_length_m": 75.43076295494112
      }
    },
    {
      "type": "Feature",
      "geometry": {
        "type": "LineString",
        "coordinates": [
          [
            770195.8300000001,
            6270723.779999999
          ],
          [
            770131.93,
            6270763.68
          ]
        ]
      },
      "properties": {
        "row_id": -2281006,
        "max_length_m": 75.33405604394804
      }
    },
    {
      "type": "Feature",
      "geometry": {
        "type": "LineString",
        "coordinates": [
          [
            770129.8300000001,
            6270761.88
          ],
          [
            770196.1300000001,
            6270720.779999999
          ]
        ]
      },
      "properties": {
        "row_id": -2281005,
        "max_length_m": 78.00576901775989
      }
    },
    {
      "type": "Feature",
      "geometry": {
        "type": "LineString",
        "coordinates": [
          [
            770128.6300000001,
            6270759.48
          ],
          [
            770194.6300000001,
            6270718.98
          ]
        ]
      },
      "properties": {
        "row_id": -2281004,
        "max_length_m": 77.43545699484184
      }
    },
    {
      "type": "Feature",
      "geometry": {
        "type": "LineString",
        "coordinates": [
          [
            770127.1300000001,
            6270757.08
          ],
          [
            770193.1300000001,
            6270716.58
          ]
        ]
      },
      "properties": {
        "row_id": -2281003,
        "max_length_m": 77.43545699484184
      }
    },
    {
      "type": "Feature",
      "geometry": {
        "type": "LineString",
        "coordinates": [
          [
            770125.93,
            6270754.98
          ],
          [
            770191.93,
            6270714.48
          ]
        ]
      },
      "properties": {
        "row_id": -2281002,
        "max_length_m": 77.43545699484184
      }
    },
    {
      "type": "Feature",
      "geometry": {
        "type": "LineString",
        "coordinates": [
          [
            770124.73,
            6270752.88
          ],
          [
            770190.7300000001,
            6270712.379999999
          ]
        ]
      },
      "properties": {
        "row_id": -2281001,
        "max_length_m": 77.43545699542815
      }
    },
    {
      "type": "Feature",
      "geometry": {
        "type": "LineString",
        "coordinates": [
          [
            770123.53,
            6270751.08
          ],
          [
            770188.93,
            6270710.879999999
          ]
        ]
      },
      "properties": {
        "row_id": -2281000,
        "max_length_m": 76.76718048810247
      }
    },
    {
      "type": "Feature",
      "geometry": {
        "type": "LineString",
        "coordinates": [
          [
            770121.73,
            6270748.68
          ],
          [
            770188.3300000001,
            6270708.48
          ]
        ]
      },
      "properties": {
        "row_id": -2280999,
        "max_length_m": 77.79203043983685
      }
    },
    {
      "type": "Feature",
      "geometry": {
        "type": "LineString",
        "coordinates": [
          [
            770120.8300000001,
            6270746.88
          ],
          [
            770186.8300000001,
            6270706.08
          ]
        ]
      },
      "properties": {
        "row_id": -2280998,
        "max_length_m": 77.59278316947267
      }
    },
    {
      "type": "Feature",
      "geometry": {
        "type": "LineString",
        "coordinates": [
          [
            770119.6300000001,
            6270744.18
          ],
          [
            770185.3300000001,
            6270703.98
          ]
        ]
      },
      "properties": {
        "row_id": -2280997,
        "max_length_m": 77.02291866667984
      }
    },
    {
      "type": "Feature",
      "geometry": {
        "type": "LineString",
        "coordinates": [
          [
            770117.8300000001,
            6270742.379999999
          ],
          [
            770184.1300000001,
            6270701.879999999
          ]
        ]
      },
      "properties": {
        "row_id": -2280996,
        "max_length_m": 77.69131225565813
      }
    },
    {
      "type": "Feature",
      "geometry": {
        "type": "LineString",
        "coordinates": [
          [
            770117.23,
            6270740.879999999
          ],
          [
            770182.93,
            6270699.48
          ]
        ]
      },
      "properties": {
        "row_id": -2280995,
        "max_length_m": 77.65597208126235
      }
    },
    {
      "type": "Feature",
      "geometry": {
        "type": "LineString",
        "coordinates": [
          [
            770115.43,
            6270737.879999999
          ],
          [
            770181.7300000001,
            6270697.68
          ]
        ]
      },
      "properties": {
        "row_id": -2280994,
        "max_length_m": 77.5353467777521
      }
    },
    {
      "type": "Feature",
      "geometry": {
        "type": "LineString",
        "coordinates": [
          [
            770114.23,
            6270736.08
          ],
          [
            770180.2300000001,
            6270695.58
          ]
        ]
      },
      "properties": {
        "row_id": -2280993,
        "max_length_m": 77.43545699494106
      }
    },
    {
      "type": "Feature",
      "geometry": {
        "type": "LineString",
        "coordinates": [
          [
            770112.73,
            6270733.98
          ],
          [
            770178.7300000001,
            6270693.48
          ]
        ]
      },
      "properties": {
        "row_id": -2280992,
        "max_length_m": 77.43545699494106
      }
    },
    {
      "type": "Feature",
      "geometry": {
        "type": "LineString",
        "coordinates": [
          [
            770111.8300000001,
            6270731.879999999
          ],
          [
            770177.53,
            6270691.379999999
          ]
        ]
      },
      "properties": {
        "row_id": -2280991,
        "max_length_m": 77.1799196682264
      }
    },
    {
      "type": "Feature",
      "geometry": {
        "type": "LineString",
        "coordinates": [
          [
            770110.03,
            6270729.779999999
          ],
          [
            770176.03,
            6270689.279999999
          ]
        ]
      },
      "properties": {
        "row_id": -2280990,
        "max_length_m": 77.43545699484184
      }
    },
    {
      "type": "Feature",
      "geometry": {
        "type": "LineString",
        "coordinates": [
          [
            770108.8300000001,
            6270727.379999999
          ],
          [
            770175.1300000001,
            6270686.879999999
          ]
        ]
      },
      "properties": {
        "row_id": -2280989,
        "max_length_m": 77.69131225565813
      }
    },
    {
      "type": "Feature",
      "geometry": {
        "type": "LineString",
        "coordinates": [
          [
            770107.6300000001,
            6270724.98
          ],
          [
            770173.93,
            6270685.08
          ]
        ]
      },
      "properties": {
        "row_id": -2280988,
        "max_length_m": 77.38023003339075
      }
    },
    {
      "type": "Feature",
      "geometry": {
        "type": "LineString",
        "coordinates": [
          [
            770106.43,
            6270723.48
          ],
          [
            770172.43,
            6270682.68
          ]
        ]
      },
      "properties": {
        "row_id": -2280987,
        "max_length_m": 77.59278316996237
      }
    },
    {
      "type": "Feature",
      "geometry": {
        "type": "LineString",
        "coordinates": [
          [
            770105.8300000001,
            6270720.779999999
          ],
          [
            770170.93,
            6270680.58
          ]
        ]
      },
      "properties": {
        "row_id": -2280986,
        "max_length_m": 76.51176380098073
      }
    }
  ]
}